NORAD_CAT_ID,OBJECT_NAME,OBJECT_TYPE,EPOCH,MEAN_MOTION,ECCENTRICITY,INCLINATION,RA_OF_ASC_NODE,ARG_OF_PERICENTER,MEAN_ANOMALY,BSTAR,MEAN_MOTION_DOT,MEAN_MOTION_DDOT,TLE_LINE0,TLE_LINE1,TLE_LINE2,SEMIMAJOR_AXIS,PERIOD,APOGEE,PERIGEE,DECAYED
55751.0,STARLINK-5577,PAYLOAD,2023-10-29 22:09:53,14.98323086,0.0002066,70.0019,257.3639,269.9835,90.1087,0.0002281,2.629e-05,0.0,0 STARLINK-5577,1 55751U 23028L   23302.92353630  .00002629  00000-0  22810-3 0  9994,2 55751  70.0019 257.3639 0002066 269.9835  90.1087 14.98323086 36955,6950.214,96.107,573.515,570.643,0.0
55751.0,STARLINK-5577,PAYLOAD,2023-10-30 04:34:26,14.98320882,0.0002486,70.0003,256.6913,270.6303,89.4571,9.6802e-05,1.062e-05,0.0,0 STARLINK-5577,1 55751U 23028L   23303.19058165  .00001062  00000-0  96802-4 0  9992,2 55751  70.0003 256.6913 0002486 270.6303  89.4571 14.98320882 36994,6950.221,96.108,573.814,570.358,0.0
55751.0,STARLINK-5577,PAYLOAD,2023-10-30 20:35:46,14.9832938,0.0002635,70.0004,255.0081,264.0365,96.0494,-3.9732e-06,-1.4e-06,0.0,0 STARLINK-5577,1 55751U 23028L   23303.85817921 -.00000140  00000-0 -39732-5 0  9996,2 55751  70.0004 255.0081 0002635 264.0365  96.0494 14.98329380 37097,6950.195,96.107,573.891,570.228,0.0
55751.0,STARLINK-5577,PAYLOAD,2023-10-30 22:11:54,14.98329744,0.0002686,70.0003,254.8397,264.7953,95.29,-9.0159e-06,-2.01e-06,0.0,0 STARLINK-5577,1 55751U 23028L   23303.92493902 -.00000201  00000-0 -90159-5 0  9991,2 55751  70.0003 254.8397 0002686 264.7953  95.2900 14.98329744 37108,6950.194,96.107,573.926,570.192,0.0
55751.0,STARLINK-5577,PAYLOAD,2023-10-31 14:13:15,14.98333199,0.0002233,70.001,253.1545,273.3166,86.7738,-4.8248e-05,-6.69e-06,0.0,0 STARLINK-5577,1 55751U 23028L   23304.59253890 -.00000669  00000-0 -48248-4 0  9994,2 55751  70.0010 253.1545 0002233 273.3166  86.7738 14.98333199 37207,6950.183,96.107,573.6,570.496,0.0
55751.0,STARLINK-5577,PAYLOAD,2023-10-31 22:13:55,14.98326479,0.0002709,70.001,252.3138,272.7944,87.2905,6.7835e-05,7.16e-06,0.0,0 STARLINK-5577,1 55751U 23028L   23304.92633944  .00000716  00000-0  67835-4 0  9997,2 55751  70.0010 252.3138 0002709 272.7944  87.2905 14.98326479 37251,6950.204,96.107,573.952,570.186,0.0
55751.0,STARLINK-5577,PAYLOAD,2023-11-01 04:38:28,14.98326149,0.0002619,70.0009,251.6413,263.8314,96.2546,5.4772e-05,5.61e-06,0.0,0 STARLINK-5577,1 55751U 23028L   23305.19338045  .00000561  00000-0  54772-4 0  9995,2 55751  70.0009 251.6413 0002619 263.8314  96.2546 14.98326149 37298,6950.205,96.107,573.89,570.25,0.0
55751.0,STARLINK-5577,PAYLOAD,2023-11-01 14:15:16,14.98325066,0.0002696,70.0001,250.63,263.5565,96.5287,0.00018279,2.088e-05,0.0,0 STARLINK-5577,1 55751U 23028L   23305.59393848  .00002088  00000-0  18279-3 0  9998,2 55751  70.0001 250.6300 0002696 263.5565  96.5287 14.98325066 37353,6950.208,96.107,573.947,570.199,0.0
55751.0,STARLINK-5577,PAYLOAD,2023-11-01 22:15:56,14.98329407,0.0002946,69.9997,249.7883,270.196,89.8862,0.00012143,1.356e-05,0.0,0 STARLINK-5577,1 55751U 23028L   23305.92773620  .00001356  00000-0  12143-3 0  9996,2 55751  69.9997 249.7883 0002946 270.1960  89.8862 14.98329407 37403,6950.195,96.107,574.107,570.012,0.0
55751.0,STARLINK-5577,PAYLOAD,2023-11-02 04:40:28,14.9833846,0.0002892,69.9994,249.1149,267.1477,92.9351,0.00014313,1.616e-05,0.0,0 STARLINK-5577,1 55751U 23028L   23306.19476956  .00001616  00000-0  14313-3 0  9998,2 55751  69.9994 249.1149 0002892 267.1477  92.9351 14.98338460 37449,6950.167,96.106,574.042,570.022,0.0
55751.0,STARLINK-5577,PAYLOAD,2023-11-02 06:16:36,14.98338916,0.00029,69.9996,248.9469,266.8943,93.1884,0.00016075,1.826e-05,0.0,0 STARLINK-5577,1 55751U 23028L   23306.26152849  .00001826  00000-0  16075-3 0  9998,2 55751  69.9996 248.9469 0002900 266.8943  93.1884 14.98338916 37458,6950.165,96.106,574.046,570.015,0.0
55751.0,STARLINK-5577,PAYLOAD,2023-11-02 20:41:49,14.98328709,0.0003062,70.0006,247.4328,265.0377,95.0432,7.7268e-05,8.29e-06,0.0,0 STARLINK-5577,1 55751U 23028L   23306.86237540  .00000829  00000-0  77268-4 0  9990,2 55751  70.0006 247.4328 0003062 265.0377  95.0432 14.98328709 37542,6950.197,96.107,574.19,569.934,0.0
55751.0,STARLINK-5577,PAYLOAD,2023-11-02 22:17:57,14.98329019,0.0002942,70.0001,247.2645,272.2717,87.8106,7.3153e-05,7.8e-06,0.0,0 STARLINK-5577,1 55751U 23028L   23306.92913610  .00000780  00000-0  73153-4 0  9991,2 55751  70.0001 247.2645 0002942 272.2717  87.8106 14.98329019 37554,6950.196,96.107,574.106,570.016,0.0
55751.0,STARLINK-5577,PAYLOAD,2023-11-03 06:18:37,14.98330545,0.0002893,70.0001,246.4224,269.913,90.1698,0.00015406,1.746e-05,0.0,0 STARLINK-5577,1 55751U 23028L   23307.26293310  .00001746  00000-0  15406-3 0  9996,2 55751  70.0001 246.4224 0002893 269.9130  90.1698 14.98330545 37600,6950.191,96.107,574.067,570.046,0.0
55751.0,STARLINK-5577,PAYLOAD,2023-11-03 22:19:58,14.98329098,0.0002816,70.0009,244.7399,270.5284,89.5552,1.7222e-05,1.13e-06,0.0,0 STARLINK-5577,1 55751U 23028L   23307.93053658  .00000113  00000-0  17222-4 0  9995,2 55751  70.0009 244.7399 0002816 270.5284  89.5552 14.98329098 37708,6950.196,96.107,574.018,570.104,0.0
55751.0,STARLINK-5577,PAYLOAD,2023-11-04 03:08:22,14.98330321,0.0002678,70.0005,244.2343,264.6726,95.4127,1.4581e-05,8.1e-07,0.0,0 STARLINK-5577,1 55751U 23028L   23308.13081554  .00000081  00000-0  14581-4 0  9993,2 55751  70.0005 244.2343 0002678 264.6726  95.4127 14.98330321 37737,6950.192,96.107,573.918,570.196,0.0
55751.0,STARLINK-5577,PAYLOAD,2023-11-04 06:20:37,14.98345701,0.0002649,70.0005,243.8972,272.688,87.3976,0.00016732,1.905e-05,0.0,0 STARLINK-5577,1 55751U 23028L   23308.26432344  .00001905  00000-0  16732-3 0  9999,2 55751  70.0005 243.8972 0002649 272.6880  87.3976 14.98345701 37750,6950.144,96.106,573.85,570.168,0.0
55751.0,STARLINK-5577,PAYLOAD,2023-11-04 12:45:07,14.98383407,0.0003128,70.0004,243.2235,270.9699,89.1102,-0.00028175,-3.458e-05,0.0,0 STARLINK-5577,1 55751U 23028L   23308.53134149 -.00003458  00000-0 -28175-3 0  9992,2 55751  70.0004 243.2235 0003128 270.9699  89.1102 14.98383407 37797,6950.028,96.104,574.067,569.719,0.0
55751.0,STARLINK-5577,PAYLOAD,2023-11-04 20:45:48,14.98351009,0.0002596,70.0004,242.3828,264.7881,95.2982,0.00028234,3.279e-05,0.0,0 STARLINK-5577,1 55751U 23028L   23308.86514954  .00003279  00000-0  28234-3 0  9999,2 55751  70.0004 242.3828 0002596 264.7881  95.2982 14.98351009 37840,6950.128,96.106,573.797,570.189,0.0
55751.0,STARLINK-5577,PAYLOAD,2023-11-04 22:21:56,14.98348817,0.0002601,70.0011,242.2143,263.9791,96.1071,0.00030835,3.59e-05,0.0,0 STARLINK-5577,1 55751U 23028L   23308.93190923  .00003590  00000-0  30835-3 0  9999,2 55751  70.0011 242.2143 0002601 263.9791  96.1071 14.98348817 37858,6950.135,96.106,573.807,570.192,0.0
55751.0,STARLINK-5577,PAYLOAD,2023-11-05 03:10:23,14.98323977,0.0002478,70.0005,241.7092,261.9744,98.1133,-3.1271e-05,-4.66e-06,0.0,0 STARLINK-5577,1 55751U 23028L   23309.13221240 -.00000466  00000-0 -31271-4 0  9996,2 55751  70.0005 241.7092 0002478 261.9744  98.1133 14.98323977 37880,6950.212,96.107,573.799,570.354,0.0
55751.0,STARLINK-5577,PAYLOAD,2023-11-05 12:47:11,14.98338514,0.0002441,70.0007,240.6988,274.3306,85.7574,-0.00022549,-2.783e-05,0.0,0 STARLINK-5577,1 55751U 23028L   23309.53276741 -.00002783  00000-0 -22549-3 0  9997,2 55751  70.0007 240.6988 0002441 274.3306  85.7574 14.98338514 37947,6950.167,96.106,573.728,570.335,0.0
55751.0,STARLINK-5577,PAYLOAD,2023-11-05 22:23:59,14.98332971,0.0002839,69.9997,239.6886,268.0722,92.0112,5.6083e-05,5.76e-06,0.0,0 STARLINK-5577,1 55751U 23028L   23309.93332414  .00000576  00000-0  56083-4 0  9998,2 55751  69.9997 239.6886 0002839 268.0722  92.0112 14.98332971 38008,6950.184,96.107,574.022,570.076,0.0
55751.0,STARLINK-5577,PAYLOAD,2023-11-06 03:12:23,14.98324585,0.0002508,70.0007,239.1842,263.7186,96.3688,-9.9507e-05,-1.28e-05,0.0,0 STARLINK-5577,1 55751U 23028L   23310.13361008 -.00001280  00000-0 -99507-4 0  9996,2 55751  70.0007 239.1842 0002508 263.7186  96.3688 14.98324585 38039,6950.21,96.107,573.818,570.332,0.0
55751.0,STARLINK-5577,PAYLOAD,2023-11-06 04:48:26,14.98393975,0.0002548,70.0003,239.0159,271.9717,88.1151,0.00074935,8.874e-05,0.0,0 STARLINK-5577,1 55751U 23028L   23310.20030966  .00008874  00000-0  74935-3 0  9991,2 55751  70.0003 239.0159 0002548 271.9717  88.1151 14.98393975 38044,6949.995,96.103,573.631,570.089,0.0
55751.0,STARLINK-5577,PAYLOAD,2023-11-06 12:49:12,14.98329848,0.0002063,70.0006,238.1741,283.0676,77.0252,-5.7227e-05,-7.76e-06,0.0,0 STARLINK-5577,1 55751U 23028L   23310.53416690 -.00000776  00000-0 -57227-4 0  9990,2 55751  70.0006 238.1741 0002063 283.0676  77.0252 14.98329848 38096,6950.193,96.107,573.492,570.625,0.0
55751.0,STARLINK-5577,PAYLOAD,2023-11-06 22:26:03,14.98296899,0.0002924,70.0006,237.164,273.762,86.3204,-0.00051002,-6.168e-05,0.0,0 STARLINK-5577,1 55751U 23028L   23310.93475755 -.00006168  00000-0 -51002-3 0  9996,2 55751  70.0006 237.1640 0002924 273.7620  86.3204 14.98296899 38150,6950.295,96.109,574.193,570.128,0.0
55751.0,STARLINK-5577,PAYLOAD,2023-11-07 03:14:25,14.9832246,0.0002706,70.0006,236.6598,264.6488,95.4362,-0.00028498,-3.491e-05,0.0,0 STARLINK-5577,1 55751U 23028L   23311.13501818 -.00003491  00000-0 -28498-3 0  9998,2 55751  70.0006 236.6598 0002706 264.6488  95.4362 14.98322460 38188,6950.216,96.107,573.962,570.2,0.0
55751.0,STARLINK-5577,PAYLOAD,2023-11-07 12:51:14,14.98316967,0.0002393,70.0016,235.6502,282.3153,77.7738,2.8487e-05,2.47e-06,0.0,0 STARLINK-5577,1 55751U 23028L   23311.53558089  .00000247  00000-0  28487-4 0  9997,2 55751  70.0016 235.6502 0002393 282.3153  77.7738 14.98316967 38243,6950.233,96.108,573.761,570.435,0.0
55751.0,STARLINK-5577,PAYLOAD,2023-11-07 19:15:43,14.9836191,0.0002827,70.001,234.9767,277.7368,82.347,0.00038136,4.464e-05,0.0,0 STARLINK-5577,1 55751U 23028L   23311.80258544  .00004464  00000-0  38136-3 0  9996,2 55751  70.0010 234.9767 0002827 277.7368  82.3470 14.98361910 38287,6950.094,96.105,573.924,569.994,0.0
